{
    "links": {
        "self": "http://www.neowsapp.com/rest/v1/neo/3873143?api_key=iIulBulltgU6a56xZRHN4H3l9WmuAYTsLGpBGhQ2"
    },
    "id": "3873143",
    "neo_reference_id": "3873143",
    "name": "(2019 SX8)",
    "designation": "2019 SX8",
    "nasa_jpl_url": "http://ssd.jpl.nasa.gov/sbdb.cgi?sstr=3873143",
    "absolute_magnitude_h": 28.9,
    "estimated_diameter": {
        "kilometers": {
            "estimated_diameter_min": 0.004411182,
            "estimated_diameter_max": 0.0098637028
        },
        "meters": {
            "estimated_diameter_min": 4.411182,
            "estimated_diameter_max": 9.8637028131
        },
        "miles": {
            "estimated_diameter_min": 0.0027409806,
            "estimated_diameter_max": 0.0061290189
        },
        "feet": {
            "estimated_diameter_min": 14.4723823528,
            "estimated_diameter_max": 32.3612307372
        }
    },
    "is_potentially_hazardous_asteroid": false,
    "close_approach_data": [
        {
            "close_approach_date": "1990-10-27",
            "close_approach_date_full": "1990-Oct-27 00:37",
            "epoch_date_close_approach": 656987820000,
            "relative_velocity": {
                "kilometers_per_second": "19.2372387093",
                "kilometers_per_hour": "69254.0593535095",
                "miles_per_hour": "43031.7792688515"
            },
            "miss_distance": {
                "astronomical": "0.3701326436",
                "lunar": "143.9815983604",
                "kilometers": "55371055.100029132",
                "miles": "34405978.2127487416"
            },
            "orbiting_body": "Earth"
        },
        {
            "close_approach_date": "2017-10-30",
            "close_approach_date_full": "2017-Oct-30 10:07",
            "epoch_date_close_approach": 1509358020000,
            "relative_velocity": {
                "kilometers_per_second": "21.2310374983",
                "kilometers_per_hour": "76431.7349939448",
                "miles_per_hour": "47491.7077799875"
            },
            "miss_distance": {
                "astronomical": "0.4386089078",
                "lunar": "170.6188651342",
                "kilometers": "65614958.369906386",
                "miles": "40771244.5433286868"
            },
            "orbiting_body": "Earth"
        },
        {
            "close_approach_date": "2019-09-27",
            "close_approach_date_full": "2019-Sep-27 23:20",
            "epoch_date_close_approach": 1569626400000,
            "relative_velocity": {
                "kilometers_per_second": "9.1292072383",
                "kilometers_per_hour": "32865.1460580033",
                "miles_per_hour": "20421.1236714299"
            },
            "miss_distance": {
                "astronomical": "0.0027114105",
                "lunar": "1.0547386845",
                "kilometers": "405621.235495635",
                "miles": "252041.348424363"
            },
            "orbiting_body": "Moon"
        },
        {
            "close_approach_date": "2019-09-28",
            "close_approach_date_full": "2019-Sep-28 07:50",
            "epoch_date_close_approach": 1569657000000,
            "relative_velocity": {
                "kilometers_per_second": "8.3791424143",
                "kilometers_per_hour": "30164.912691358",
                "miles_per_hour": "18743.3036664719"
            },
            "miss_distance": {
                "astronomical": "0.0025506722",
                "lunar": "0.9922114858",
                "kilometers": "381575.128188214",
                "miles": "237099.7901927932"
            },
            "orbiting_body": "Earth"
        },
        {
            "close_approach_date": "2021-06-06",
            "close_approach_date_full": "2021-Jun-06 10:12",
            "epoch_date_close_approach": 1622974320000,
            "relative_velocity": {
                "kilometers_per_second": "19.0985064226",
                "kilometers_per_hour": "68754.623121482",
                "miles_per_hour": "42721.4490167898"
            },
            "miss_distance": {
                "astronomical": "0.3867681101",
                "lunar": "150.4527948289",
                "kilometers": "57859685.454885487",
                "miles": "35952341.4094422406"
            },
            "orbiting_body": "Earth"
        }
    ],
    "orbital_data": {
        "orbit_id": "4",
        "orbit_determination_date": "2019-10-08 05:58:13",
        "first_observation_date": "2019-09-30",
        "last_observation_date": "2019-10-08",
        "data_arc_in_days": 8,
        "observations_used": 25,
        "orbit_uncertainty": "7",
        "minimum_orbit_intersection": ".00227935",
        "jupiter_tisserand_invariant": "4.400",
        "epoch_osculation": "2459000.5",
        "eccentricity": ".3827328881874514",
        "semi_major_axis": "1.529729242815744",
        "inclination": "4.876333549651076",
        "ascending_node_longitude": "186.1304745209591",
        "orbital_period": "691.0671993337921",
        "perihelion_distance": ".9442515515680711",
        "perihelion_argument": "140.8326848688642",
        "aphelion_distance": "2.115206934063417",
        "perihelion_time": "2458723.713180599278",
        "mean_anomaly": "144.1875046020398",
        "mean_motion": ".5209334205805889",
        "equinox": "J2000",
        "orbit_class": {
            "orbit_class_type": "APO",
            "orbit_class_description": "Near-Earth asteroid orbits which cross the Earth’s orbit similar to that of 1862 Apollo",
            "orbit_class_range": "a (semi-major axis) > 1.0 AU; q (perihelion) < 1.017 AU"
        }
    },
    "is_sentry_object": false
}